[{"CCSDS_OMM_VERS":"3.0","COMMENT":"GENERATED VIA SPACE-TRACK.ORG API","CREATION_DATE":"2026-06-07T17:56:23","ORIGINATOR":"18 SPCS","OBJECT_NAME":"BEIDOU 3 IGSO-1","OBJECT_ID":"2019-023A","CENTER_NAME":"EARTH","REF_FRAME":"TEME","TIME_SYSTEM":"UTC","MEAN_ELEMENT_THEORY":"SGP4","EPOCH":"2026-06-06T22:54:10.040832","MEAN_MOTION":"1.00294902","ECCENTRICITY":"0.00254190","INCLINATION":"58.6799","RA_OF_ASC_NODE":"37.7569","ARG_OF_PERICENTER":"225.7371","MEAN_ANOMALY":"92.8010","EPHEMERIS_TYPE":"0","CLASSIFICATION_TYPE":"U","NORAD_CAT_ID":"44204","ELEMENT_SET_NO":"999","REV_AT_EPOCH":"710","BSTAR":"0.00000000000000","MEAN_MOTION_DOT":"-0.00000215","MEAN_MOTION_DDOT":"0.0000000000000","SEMIMAJOR_AXIS":"42158.253","PERIOD":"1435.766","APOAPSIS":"35887.280","PERIAPSIS":"35672.956","OBJECT_TYPE":"PAYLOAD","RCS_SIZE":"LARGE","COUNTRY_CODE":"PRC","LAUNCH_DATE":"2019-04-20","SITE":"XSC","DECAY_DATE":null,"FILE":"5234448","GP_ID":"327760655","TLE_LINE0":"0 BEIDOU 3 IGSO-1","TLE_LINE1":"1 44204U 19023A   26157.95428288 -.00000215  00000-0  00000+0 0  9994","TLE_LINE2":"2 44204  58.6799  37.7569 0025419 225.7371  92.8010  1.00294902  7100"},{"CCSDS_OMM_VERS":"3.0","COMMENT":"GENERATED VIA SPACE-TRACK.ORG API","CREATION_DATE":"2026-06-08T23:46:52","ORIGINATOR":"18 SPCS","OBJECT_NAME":"BEIDOU 3 IGSO-1","OBJECT_ID":"2019-023A","CENTER_NAME":"EARTH","REF_FRAME":"TEME","TIME_SYSTEM":"UTC","MEAN_ELEMENT_THEORY":"SGP4","EPOCH":"2026-06-06T22:54:10.040832","MEAN_MOTION":"1.00294886","ECCENTRICITY":"0.00254340","INCLINATION":"58.6799","RA_OF_ASC_NODE":"37.7569","ARG_OF_PERICENTER":"225.6649","MEAN_ANOMALY":"92.8731","EPHEMERIS_TYPE":"0","CLASSIFICATION_TYPE":"U","NORAD_CAT_ID":"44204","ELEMENT_SET_NO":"999","REV_AT_EPOCH":"710","BSTAR":"0.00000000000000","MEAN_MOTION_DOT":"-0.00000215","MEAN_MOTION_DDOT":"0.0000000000000","SEMIMAJOR_AXIS":"42158.257","PERIOD":"1435.766","APOAPSIS":"35887.347","PERIAPSIS":"35672.897","OBJECT_TYPE":"PAYLOAD","RCS_SIZE":"LARGE","COUNTRY_CODE":"PRC","LAUNCH_DATE":"2019-04-20","SITE":"XSC","DECAY_DATE":null,"FILE":"5238071","GP_ID":"328139104","TLE_LINE0":"0 BEIDOU 3 IGSO-1","TLE_LINE1":"1 44204U 19023A   26157.95428288 -.00000215  00000-0  00000+0 0  9994","TLE_LINE2":"2 44204  58.6799  37.7569 0025434 225.6649  92.8731  1.00294886  7105"},{"CCSDS_OMM_VERS":"3.0","COMMENT":"GENERATED VIA SPACE-TRACK.ORG API","CREATION_DATE":"2026-06-16T17:35:04","ORIGINATOR":"18 SPCS","OBJECT_NAME":"BEIDOU 3 IGSO-1","OBJECT_ID":"2019-023A","CENTER_NAME":"EARTH","REF_FRAME":"TEME","TIME_SYSTEM":"UTC","MEAN_ELEMENT_THEORY":"SGP4","EPOCH":"2026-06-16T14:11:00.247776","MEAN_MOTION":"1.00291370","ECCENTRICITY":"0.00254580","INCLINATION":"58.6939","RA_OF_ASC_NODE":"37.6556","ARG_OF_PERICENTER":"225.7166","MEAN_ANOMALY":"332.2073","EPHEMERIS_TYPE":"0","CLASSIFICATION_TYPE":"U","NORAD_CAT_ID":"44204","ELEMENT_SET_NO":"999","REV_AT_EPOCH":"720","BSTAR":"0.00000000000000","MEAN_MOTION_DOT":"-0.00000221","MEAN_MOTION_DDOT":"0.0000000000000","SEMIMAJOR_AXIS":"42159.243","PERIOD":"1435.816","APOAPSIS":"35888.437","PERIAPSIS":"35673.778","OBJECT_TYPE":"PAYLOAD","RCS_SIZE":"LARGE","COUNTRY_CODE":"PRC","LAUNCH_DATE":"2019-04-20","SITE":"XSC","DECAY_DATE":null,"FILE":"5250820","GP_ID":"330003097","TLE_LINE0":"0 BEIDOU 3 IGSO-1","TLE_LINE1":"1 44204U 19023A   26167.59097509 -.00000221  00000-0  00000-0 0  9991","TLE_LINE2":"2 44204  58.6939  37.6556 0025458 225.7166 332.2073  1.00291370  7203"},{"CCSDS_OMM_VERS":"3.0","COMMENT":"GENERATED VIA SPACE-TRACK.ORG API","CREATION_DATE":"2026-06-16T22:56:50","ORIGINATOR":"18 SPCS","OBJECT_NAME":"BEIDOU 3 IGSO-1","OBJECT_ID":"2019-023A","CENTER_NAME":"EARTH","REF_FRAME":"TEME","TIME_SYSTEM":"UTC","MEAN_ELEMENT_THEORY":"SGP4","EPOCH":"2026-06-16T14:11:00.247776","MEAN_MOTION":"1.00291370","ECCENTRICITY":"0.00254580","INCLINATION":"58.6939","RA_OF_ASC_NODE":"37.6556","ARG_OF_PERICENTER":"225.7166","MEAN_ANOMALY":"332.2073","EPHEMERIS_TYPE":"0","CLASSIFICATION_TYPE":"U","NORAD_CAT_ID":"44204","ELEMENT_SET_NO":"999","REV_AT_EPOCH":"720","BSTAR":"0.00000000000000","MEAN_MOTION_DOT":"-0.00000221","MEAN_MOTION_DDOT":"0.0000000000000","SEMIMAJOR_AXIS":"42159.242","PERIOD":"1435.816","APOAPSIS":"35888.436","PERIAPSIS":"35673.778","OBJECT_TYPE":"PAYLOAD","RCS_SIZE":"LARGE","COUNTRY_CODE":"PRC","LAUNCH_DATE":"2019-04-20","SITE":"XSC","DECAY_DATE":null,"FILE":"5251108","GP_ID":"330046083","TLE_LINE0":"0 BEIDOU 3 IGSO-1","TLE_LINE1":"1 44204U 19023A   26167.59097509 -.00000221  00000-0  00000+0 0  9990","TLE_LINE2":"2 44204  58.6939  37.6556 0025458 225.7166 332.2073  1.00291370  7203"},{"CCSDS_OMM_VERS":"3.0","COMMENT":"GENERATED VIA SPACE-TRACK.ORG API","CREATION_DATE":"2026-06-17T17:43:15","ORIGINATOR":"18 SPCS","OBJECT_NAME":"BEIDOU 3 IGSO-1","OBJECT_ID":"2019-023A","CENTER_NAME":"EARTH","REF_FRAME":"TEME","TIME_SYSTEM":"UTC","MEAN_ELEMENT_THEORY":"SGP4","EPOCH":"2026-06-17T15:14:19.749120","MEAN_MOTION":"1.00291189","ECCENTRICITY":"0.00254969","INCLINATION":"58.6955","RA_OF_ASC_NODE":"37.6444","ARG_OF_PERICENTER":"225.8169","MEAN_ANOMALY":"349.0348","EPHEMERIS_TYPE":"0","CLASSIFICATION_TYPE":"U","NORAD_CAT_ID":"44204","ELEMENT_SET_NO":"999","REV_AT_EPOCH":"721","BSTAR":"0.00000000000000","MEAN_MOTION_DOT":"-0.00000222","MEAN_MOTION_DDOT":"0.0000000000000","SEMIMAJOR_AXIS":"42159.293","PERIOD":"1435.819","APOAPSIS":"35888.651","PERIAPSIS":"35673.665","OBJECT_TYPE":"PAYLOAD","RCS_SIZE":"LARGE","COUNTRY_CODE":"PRC","LAUNCH_DATE":"2019-04-20","SITE":"XSC","DECAY_DATE":null,"FILE":"5252865","GP_ID":"330230205","TLE_LINE0":"0 BEIDOU 3 IGSO-1","TLE_LINE1":"1 44204U 19023A   26168.63495080 -.00000222  00000-0  00000-0 0  9994","TLE_LINE2":"2 44204  58.6955  37.6444 0025497 225.8169 349.0348  1.00291189  7214"},{"CCSDS_OMM_VERS":"3.0","COMMENT":"GENERATED VIA SPACE-TRACK.ORG API","CREATION_DATE":"2026-06-17T22:56:53","ORIGINATOR":"18 SPCS","OBJECT_NAME":"BEIDOU 3 IGSO-1","OBJECT_ID":"2019-023A","CENTER_NAME":"EARTH","REF_FRAME":"TEME","TIME_SYSTEM":"UTC","MEAN_ELEMENT_THEORY":"SGP4","EPOCH":"2026-06-17T15:14:19.749120","MEAN_MOTION":"1.00291188","ECCENTRICITY":"0.00254970","INCLINATION":"58.6955","RA_OF_ASC_NODE":"37.6444","ARG_OF_PERICENTER":"225.8169","MEAN_ANOMALY":"349.0348","EPHEMERIS_TYPE":"0","CLASSIFICATION_TYPE":"U","NORAD_CAT_ID":"44204","ELEMENT_SET_NO":"999","REV_AT_EPOCH":"721","BSTAR":"0.00000000000000","MEAN_MOTION_DOT":"-0.00000222","MEAN_MOTION_DDOT":"0.0000000000000","SEMIMAJOR_AXIS":"42159.293","PERIOD":"1435.819","APOAPSIS":"35888.652","PERIAPSIS":"35673.665","OBJECT_TYPE":"PAYLOAD","RCS_SIZE":"LARGE","COUNTRY_CODE":"PRC","LAUNCH_DATE":"2019-04-20","SITE":"XSC","DECAY_DATE":null,"FILE":"5253074","GP_ID":"330266823","TLE_LINE0":"0 BEIDOU 3 IGSO-1","TLE_LINE1":"1 44204U 19023A   26168.63495080 -.00000222  00000-0  00000+0 0  9993","TLE_LINE2":"2 44204  58.6955  37.6444 0025497 225.8169 349.0348  1.00291188  7213"},{"CCSDS_OMM_VERS":"3.0","COMMENT":"GENERATED VIA SPACE-TRACK.ORG API","CREATION_DATE":"2026-06-18T11:14:27","ORIGINATOR":"18 SPCS","OBJECT_NAME":"BEIDOU 3 IGSO-1","OBJECT_ID":"2019-023A","CENTER_NAME":"EARTH","REF_FRAME":"TEME","TIME_SYSTEM":"UTC","MEAN_ELEMENT_THEORY":"SGP4","EPOCH":"2026-06-18T00:46:38.565984","MEAN_MOTION":"1.00291130","ECCENTRICITY":"0.00255164","INCLINATION":"58.6960","RA_OF_ASC_NODE":"37.6402","ARG_OF_PERICENTER":"225.7659","MEAN_ANOMALY":"132.5812","EPHEMERIS_TYPE":"0","CLASSIFICATION_TYPE":"U","NORAD_CAT_ID":"44204","ELEMENT_SET_NO":"999","REV_AT_EPOCH":"721","BSTAR":"0.00000000000000","MEAN_MOTION_DOT":"-0.00000223","MEAN_MOTION_DDOT":"0.0000000000000","SEMIMAJOR_AXIS":"42159.310","PERIOD":"1435.820","APOAPSIS":"35888.750","PERIAPSIS":"35673.600","OBJECT_TYPE":"PAYLOAD","RCS_SIZE":"LARGE","COUNTRY_CODE":"PRC","LAUNCH_DATE":"2019-04-20","SITE":"XSC","DECAY_DATE":null,"FILE":"5253499","GP_ID":"330353495","TLE_LINE0":"0 BEIDOU 3 IGSO-1","TLE_LINE1":"1 44204U 19023A   26169.03239081 -.00000223  00000-0  00000-0 0  9997","TLE_LINE2":"2 44204  58.6960  37.6402 0025516 225.7659 132.5812  1.00291130  7216"},{"CCSDS_OMM_VERS":"3.0","COMMENT":"GENERATED VIA SPACE-TRACK.ORG API","CREATION_DATE":"2026-06-18T17:45:15","ORIGINATOR":"18 SPCS","OBJECT_NAME":"BEIDOU 3 IGSO-1","OBJECT_ID":"2019-023A","CENTER_NAME":"EARTH","REF_FRAME":"TEME","TIME_SYSTEM":"UTC","MEAN_ELEMENT_THEORY":"SGP4","EPOCH":"2026-06-18T14:37:15.269664","MEAN_MOTION":"1.00291017","ECCENTRICITY":"0.00255444","INCLINATION":"58.6970","RA_OF_ASC_NODE":"37.6341","ARG_OF_PERICENTER":"225.7171","MEAN_ANOMALY":"340.8879","EPHEMERIS_TYPE":"0","CLASSIFICATION_TYPE":"U","NORAD_CAT_ID":"44204","ELEMENT_SET_NO":"999","REV_AT_EPOCH":"722","BSTAR":"0.00000000000000","MEAN_MOTION_DOT":"-0.00000224","MEAN_MOTION_DDOT":"0.0000000000000","SEMIMAJOR_AXIS":"42159.341","PERIOD":"1435.822","APOAPSIS":"35888.900","PERIAPSIS":"35673.513","OBJECT_TYPE":"PAYLOAD","RCS_SIZE":"LARGE","COUNTRY_CODE":"PRC","LAUNCH_DATE":"2019-04-20","SITE":"XSC","DECAY_DATE":null,"FILE":"5253513","GP_ID":"330389069","TLE_LINE0":"0 BEIDOU 3 IGSO-1","TLE_LINE1":"1 44204U 19023A   26169.60920451 -.00000224  00000-0  00000-0 0  9999","TLE_LINE2":"2 44204  58.6970  37.6341 0025544 225.7171 340.8879  1.00291017  7221"}]